[
  {
    "CityName": "Adana",
    "CityCode": 1,
    "DistrictName": "Aladağ",
    "ZipCode": "1720"

  },
  {
    "CityName": "Adana",
    "CityCode": 1,
    "DistrictName": "Ceyhan",
    "ZipCode": "1920"
  },
  {
    "CityName": "Adana",
    "CityCode": 1,
    "DistrictName": "Ceyhan",
    "ZipCode": "1930"
  },
  {
    "CityName": "Adana",
    "CityCode": 1,
    "DistrictName": "Ceyhan",
    "ZipCode": "1940"
  },
  {
    "CityName": "Adana",
    "CityCode": 1,
    "DistrictName": "Ceyhan",
    "ZipCode": "1950"
  },
  {
    "CityName": "Adana",
    "CityCode": 1,
    "DistrictName": "Ceyhan",
    "ZipCode": "1960"
  },
  {
    "CityName": "Adana",
    "CityCode": 1,
    "DistrictName": "Çukurova",
    "ZipCode": "1170"
  },
  {
    "CityName": "Adana",
    "CityCode": 1,
    "DistrictName": "Çukurova",
    "ZipCode": "1360"
  },
  {
    "CityName": "Adana",
    "CityCode": 1,
    "DistrictName": "Çukurova",
    "ZipCode": "1780"
  },
  {
    "CityName": "Adana",
    "CityCode": 1,
    "DistrictName": "Feke",
    "ZipCode": "1660"
  },
  {
    "CityName": "Adana",
    "CityCode": 1,
    "DistrictName": "İmamoğlu",
    "ZipCode": "1700"
  },
  {
    "CityName": "Adana",
    "CityCode": 1,
    "DistrictName": "Karaisalı",
    "ZipCode": "1770"
  },
  {
    "CityName": "Adana",
    "CityCode": 1,
    "DistrictName": "Karataş",
    "ZipCode": "1900"
  },
  {
    "CityName": "Adana",
    "CityCode": 1,
    "DistrictName": "Kozan",
    "ZipCode": "1500"
  },
  {
    "CityName": "Adana",
    "CityCode": 1,
    "DistrictName": "Kozan",
    "ZipCode": "1510"
  },
  {
    "CityName": "Adana",
    "CityCode": 1,
    "DistrictName": "Kozan",
    "ZipCode": "1530"
  },
  {
    "CityName": "Adana",
    "CityCode": 1,
    "DistrictName": "Kozan",
    "ZipCode": "1542"
  },
  {
    "CityName": "Adana",
    "CityCode": 1,
    "DistrictName": "Kozan",
    "ZipCode": "1555"
  },
  {
    "CityName": "Adana",
    "CityCode": 1,
    "DistrictName": "Pozantı",
    "ZipCode": "1470"
  },
  {
    "CityName": "Adana",
    "CityCode": 1,
    "DistrictName": "Pozantı",
    "ZipCode": "1490"
  },
  {
    "CityName": "Adana",
    "CityCode": 1,
    "DistrictName": "Saimbeyli",
    "ZipCode": "01740"
  },
  {
    "CityName": "Adana",
    "CityCode": 1,
    "DistrictName": "Sarıçam",
    "ZipCode": "01330"
  },
  {
    "CityName": "Adana",
    "CityCode": 1,
    "DistrictName": "Sarıçam",
    "ZipCode": "01340"
  },
  {
    "CityName": "Adana",
    "CityCode": 1,
    "DistrictName": "Sarıçam",
    "ZipCode": "01400"
  },
  {
    "CityName": "Adana",
    "CityCode": 1,
    "DistrictName": "Sarıçam",
    "ZipCode": "01410"
  },
  {
    "CityName": "Adana",
    "CityCode": 1,
    "DistrictName": "Sarıçam",
    "ZipCode": "01460"
  },
  {
    "CityName": "Adana",
    "CityCode": 1,
    "DistrictName": "Sarıçam",
    "Zi , pCode":"01790"},{"CityName":"Adana","CityCode":1,"DistrictName":"Seyhan","ZipCode":"01010"},{"CityName":"Adana","CityCode":1,"DistrictName":"Seyhan","ZipCode":"01020"},{"CityName":"Adana","CityCode":1,"DistrictName":"Seyhan","ZipCode":"01030"},{"CityName":"Adana","CityCode":1,"DistrictName":"Seyhan","ZipCode":"01040"}] ,
